OBJECT_NAME,OBJECT_ID,EPOCH,MEAN_MOTION,ECCENTRICITY,INCLINATION,RA_OF_ASC_NODE,ARG_OF_PERICENTER,MEAN_ANOMALY,EPHEMERIS_TYPE,CLASSIFICATION_TYPE,NORAD_CAT_ID,ELEMENT_SET_NO,REV_AT_EPOCH,BSTAR,MEAN_MOTION_DOT,MEAN_MOTION_DDOT
IRIDIUM 138,2017-083B,2026-06-03T23:46:35.073408,14.34217287,.00025401,86.3952,327.2239,89.0253,271.1233,0,U,43071,999,44224,.33684327E-4,.114E-5,0
IRIDIUM 116,2017-083C,2026-06-03T12:58:06.840480,14.34218702,.00018632,86.3955,327.7086,92.8013,267.3396,0,U,43072,999,44221,.13424294E-4,.57E-6,0
IRIDIUM 130,2017-083D,2026-06-04T23:22:14.996352,14.34219459,.0001981,86.3966,327.3835,86.1851,273.9572,0,U,43073,999,44236,.76476E-4,.234E-5,0
IRIDIUM 151,2017-083E,2026-06-03T23:19:11.104320,14.34217394,.00021742,86.3961,327.5863,92.3398,267.8046,0,U,43074,999,44224,.28654993E-4,.1E-5,0
IRIDIUM 134,2017-083F,2026-06-05T04:41:55.144032,14.34218447,.0002095,86.3960,327.0818,88.7292,271.4144,0,U,43075,999,44238,.31056E-4,.107E-5,0
IRIDIUM 137,2017-083G,2026-06-03T12:48:58.894272,14.34218432,.00018965,86.3960,327.8694,101.3050,258.8359,0,U,43076,999,44221,.23380222E-4,.85E-6,0
IRIDIUM 141,2017-083H,2026-06-04T23:49:39.144288,14.34217293,.0002087,86.3951,327.0904,90.9773,269.1662,0,U,43077,999,44242,-.22047E-4,-.42E-6,0
IRIDIUM 153,2017-083J,2026-06-05T02:01:43.472352,14.34217689,.0002367,86.3950,295.5319,89.9916,270.1551,0,U,43078,999,44354,.72131E-5,.4E-6,0
IRIDIUM 131,2017-083K,2026-06-05T04:32:47.125248,14.34217469,.0002066,86.3958,327.1937,91.9715,268.1717,0,U,43079,999,44238,-.33219E-4,-.73E-6,0
IRIDIUM 144,2018-030A,2026-06-03T11:40:07.199616,14.34218560,.00020404,86.3955,296.1314,93.0281,267.1149,0,U,43249,999,42817,.32578566E-4,.111E-5,0
IRIDIUM 149,2018-030B,2026-06-05T02:19:59.471904,14.34217382,.0002152,86.3945,295.4239,93.0875,267.0567,0,U,43250,999,42842,-.37843E-5,.9E-7,0
IRIDIUM 157,2018-030C,2026-06-05T02:47:23.434080,14.34217403,.000208,86.3946,295.4686,93.1796,266.9638,0,U,43251,999,42840,-.61106E-5,.3E-7,0
IRIDIUM 140,2018-030D,2026-06-05T03:14:47.423040,14.34217622,.0002155,86.3950,295.4730,91.8093,268.3350,0,U,43252,999,42846,.52005E-5,.34E-6,0
IRIDIUM 145,2018-030E,2026-06-03T10:45:19.169856,14.34218485,.00018795,86.3951,296.1509,94.4998,265.6412,0,U,43253,999,42815,.16917213E-4,.67E-6,0
IRIDIUM 146,2018-030F,2026-06-02T22:34:39.384768,14.34217534,.00020501,86.3948,296.3756,93.0477,267.0954,0,U,43254,999,42809,-.5310703E-5,.5E-7,0
IRIDIUM 148,2018-030G,2026-06-03T22:55:59.321280,14.34217937,.00021319,86.3950,295.9940,96.0501,264.0938,0,U,43255,999,42827,.709401E-5,.4E-6,0
IRIDIUM 142,2018-030H,2026-06-05T02:38:15.374688,14.34217499,.0002005,86.3947,295.4000,95.5597,264.5827,0,U,43256,999,42840,.41238E-5,.31E-6,0
IRIDIUM 150,2018-030J,2026-06-03T11:21:51.420384,14.34217435,.00020432,86.3945,296.2012,91.6251,268.5179,0,U,43257,999,42819,-.5493968E-5,.4E-7,0
IRIDIUM 143,2018-030K,2026-06-05T03:05:39.456096,14.34217138,.0001962,86.3949,295.6007,93.2728,266.8692,0,U,43258,999,42836,-.1279E-4,-.16E-6,0
IRIDIUM 161,2018-047C,2026-06-05T02:31:48.650016,14.43283289,.0002468,86.4480,93.5224,89.1490,270.9994,0,U,43478,999,42339,.10674E-3,.379E-5,0
IRIDIUM 152,2018-047D,2026-06-05T02:26:22.305120,14.34217755,.0002368,86.3955,93.3851,85.2687,274.8779,0,U,43479,999,42075,.1161E-4,.52E-6,0
IRIDIUM 147,2018-047E,2026-06-05T02:35:30.176160,14.34217272,.0002191,86.3956,93.3873,84.5528,275.5917,0,U,43480,999,42075,.11739E-4,.53E-6,0
IRIDIUM 110,2018-047F,2026-06-04T04:58:34.307328,14.34217902,.00025659,86.3957,93.8552,89.2196,270.9294,0,U,43481,999,42061,.13074764E-4,.56E-6,0
IRIDIUM 162,2018-047G,2026-06-05T02:22:44.216832,14.43274907,.0002375,86.4477,93.4160,82.7675,277.3796,0,U,43482,999,42338,.12439E-3,.439E-5,0
IRIDIUM 160,2018-061A,2026-06-04T05:21:02.496384,14.34217930,.0002263,86.3969,62.2172,87.3364,272.8090,0,U,43569,999,41151,.28705773E-4,.1E-5,0
IRIDIUM 166,2018-061B,2026-06-04T17:40:50.467872,14.34217784,.0002098,86.3967,61.9533,84.9541,275.1894,0,U,43570,999,41161,.69623E-5,.39E-6,0
IRIDIUM 158,2018-061C,2026-06-04T16:55:10.380000,14.34216599,.0002317,86.3966,61.9765,83.0805,277.0654,0,U,43571,999,41157,.16739E-4,.67E-6,0
IRIDIUM 165,2018-061D,2026-06-04T17:31:42.051648,14.34220416,.00021,86.3969,62.0118,83.8508,276.2927,0,U,43572,999,41160,.10259E-3,.307E-5,0
IRIDIUM 155,2018-061E,2026-06-04T18:17:22.467840,14.34217978,.0002165,86.3965,61.8685,81.2461,278.8980,0,U,43573,999,41157,.23165E-4,.85E-6,0
IRIDIUM 154,2018-061F,2026-06-04T17:49:58.450368,14.34217482,.0002046,86.3969,62.0093,86.2341,273.9088,0,U,43574,999,41162,.27618E-4,.97E-6,0
IRIDIUM 163,2018-061G,2026-06-04T03:58:50.353248,14.34218549,.00023559,86.3968,62.1661,84.7398,275.4066,0,U,43575,999,41151,.27859029E-4,.98E-6,0
